[{"OBJECT_NAME":"STARLINK-34209","OBJECT_ID":"2025-112E","EPOCH":"2026-03-09T16:51:03.259584","MEAN_MOTION":15.05648583,"ECCENTRICITY":4.536e-5,"INCLINATION":97.603,"RA_OF_ASC_NODE":121.5803,"ARG_OF_PERICENTER":135.5481,"MEAN_ANOMALY":224.5782,"EPHEMERIS_TYPE":0,"CLASSIFICATION_TYPE":"U","NORAD_CAT_ID":64150,"ELEMENT_SET_NO":999,"REV_AT_EPOCH":4331,"BSTAR":8.6336867e-5,"MEAN_MOTION_DOT":1.185e-5,"MEAN_MOTION_DDOT":0},{"OBJECT_NAME":"SL-6 R\/B(2)","OBJECT_ID":"1990-055D","EPOCH":"2026-03-09T21:41:59.551872","MEAN_MOTION":15.03595553,"ECCENTRICITY":0.00247741,"INCLINATION":62.7825,"RA_OF_ASC_NODE":253.121,"ARG_OF_PERICENTER":347.1508,"MEAN_ANOMALY":12.8957,"EPHEMERIS_TYPE":0,"CLASSIFICATION_TYPE":"U","NORAD_CAT_ID":20666,"ELEMENT_SET_NO":999,"REV_AT_EPOCH":93822,"BSTAR":0.00020900577,"MEAN_MOTION_DOT":2.688e-5,"MEAN_MOTION_DDOT":0}]
